ZHUHAI-1 02 (CAS-4B)    
1 42759U 17034B   23154.10137917  .00007109  00000+0  36206-3 0  9992
2 42759  43.0137 193.9799 0010634   4.1993 355.8942 15.17206255329491
ZHUHAI-1 01 (CAS-4A)    
1 42761U 17034D   23154.11753056  .00007000  00000+0  35661-3 0  9998
2 42761  43.0134 192.4217 0011284   5.9509 354.1471 15.17213547329507
MAX VALIER SAT          
1 42778U 17036P   23153.66264665  .00022143  00000+0  58892-3 0  9996
2 42778  97.1562 188.8551 0010126 144.2447 215.9478 15.38189229330495
RADFXSAT (FOX-1B)       
1 43017U 17073E   23153.64170622  .00007197  00000+0  50158-3 0  9990
2 43017  97.6331  38.5573 0235562 117.1350 245.4100 14.85875103299028
FOX-1D (AO-92)          
1 43137U 18004AC  23153.76098370  .00033153  00000+0  70053-3 0  9997
2 43137  97.3292 232.8066 0006487 179.7353 180.3900 15.45085110300081
DIWATA-2B               
1 43678U 18084H   23154.11825945  .00001269  00000+0  12659-3 0  9992
2 43678  98.0211 297.8062 0009052 200.6784 159.4070 14.93382464250162
ES'HAIL 2               
1 43700U 18090A   23153.81552734  .00000164  00000+0  00000+0 0  9990
2 43700   0.0172 317.9045 0001677 138.9328 113.5868  1.00269285 16541
FOX-1CLIFF (AO-95)      
1 43770U 18099N   23153.14700162  .00003936  00000+0  32325-3 0  9991
2 43770  97.5742 215.0938 0012172 179.4774 180.6465 14.99698449245359
ITASAT 1                
1 43786U 18099AE  23154.14707414  .00003675  00000+0  30431-3 0  9992
2 43786  97.5783 217.0989 0013352 163.9202 196.2448 14.99406418245542
JY1SAT (JO-97)          
1 43803U 18099AX  23154.11374852  .00006078  00000+0  48372-3 0  9998
2 43803  97.5696 217.0435 0013814 137.7462 222.4829 15.00678815245585
UWE-4                   
1 43880U 18111E   23153.70163525  .00005501  00000+0  42280-3 0  9997
2 43880  97.6325  59.1122 0016979 219.4924 140.5064 15.02018762242190
NEXUS (FO-99)           
1 43937U 19003F   23153.85291197  .00048824  00000+0  82453-3 0  9995
2 43937  97.0862 181.2512 0009694 334.6816  25.3960 15.51428932243823
JAISAT-1                
1 44419U 19038F   23153.70674027  .00023623  00000+0  82115-3 0  9995
2 44419  97.6726 134.9537 0014307   3.8210 356.3136 15.29640137216321
DUCHIFAT-3              
1 44854U 19089C   23153.75452818  .00006699  00000+0  45494-3 0  9994
2 44854  36.9602 177.5287 0009720 204.9237 155.1038 15.06032503190722
CAS-6 (TIANQIN 1)       
1 44881U 19093C   23154.12304066  .00001070  00000+0  13959-3 0  9991
2 44881  97.8616 232.8134 0016018 121.5377 238.7403 14.82506258186710
RS-44 & BREEZE-KM R/B   
1 44909U 19096E   23153.68047384  .00000031  00000+0  82548-4 0  9999
2 44909  82.5222 357.5876 0216697 220.6872 137.7868 12.79720957160307
BY70-2                  
1 45857U 20042B   23154.10951142  .00017737  00000+0  18419-2 0  9994
2 45857  97.9263 233.9644 0009310  64.5812 295.6368 14.89958074157442
SALSAT                  
1 46495U 20068K   23153.58596268  .00004294  00000+0  28558-3 0  9996
2 46495  97.7700 101.4364 0016067 163.0528 197.1239 15.07608024146875
RADFXSAT-2 (AO-109)     
1 47311U 21002C   23153.42689040  .00021803  00000+0  57819-3 0  9994
2 47311  60.6797 115.2510 0014517 167.6205 192.5249 15.38251815132011
UVSQ-SAT                
1 47438U 21006AB  23153.65355227  .00014800  00000+0  61282-3 0  9998
2 47438  97.3855 210.9729 0011477 130.2239 230.0005 15.23965408130439
DIY-1 (ARDUIQUBE)       
1 47963U 21022AH  23153.68587270  .00186256  00000+0  26028-2 0  9990
2 47963  97.4982  61.5393 0005529  55.6108 304.5668 15.56188729120336
XW-3 (CAS-9)            
1 50466U 21131B   23154.12329074  .00000593  00000+0  20676-3 0  9992
2 50466  98.5516 235.7118 0004595 166.5417 193.5893 14.38904297 75330
TEVEL-3                 
1 50988U 22002E   23154.13577920  .00018486  00000+0  75164-3 0  9997
2 50988  97.4343 221.2013 0006180 279.5757  80.4782 15.24574939 76629
TEVEL-8                 
1 50989U 22002F   23154.02264630  .00017678  00000+0  72048-3 0  9997
2 50989  97.4359 221.1471 0006226 278.8041  81.2492 15.24504482 76604
TEVEL-5                 
1 50998U 22002Q   23154.15347795  .00018424  00000+0  73128-3 0  9995
2 50998  97.4336 221.5863 0007405 273.0781  86.9609 15.25377409 76651
TEVEL-6                 
1 50999U 22002R   23154.15200142  .00018434  00000+0  73166-3 0  9993
2 50999  97.4334 221.5797 0007424 272.9493  87.0895 15.25377297 76659
TEVEL-1                 
1 51013U 22002AF  23154.14516032  .00018189  00000+0  74065-3 0  9994
2 51013  97.4337 221.1559 0006126 279.0823  80.9721 15.24529590 76626
TEVEL-7                 
1 51062U 22002CG  23154.15507640  .00017525  00000+0  71387-3 0  9991
2 51062  97.4354 221.2520 0006199 277.6866  82.3667 15.24525638 76623
TEVEL-4                 
1 51063U 22002CH  23154.16068744  .00017225  00000+0  70273-3 0  9990
2 51063  97.4354 221.2422 0006170 277.7841  82.2696 15.24476114 76623
TEVEL-2                 
1 51069U 22002CP  23154.13762609  .00018512  00000+0  75266-3 0  9991
2 51069  97.4339 221.1754 0006152 279.1446  80.9095 15.24576102 76622
GREENCUBE               
1 53106U 22080B   23149.84195747 -.00000003  00000+0  00000+0 0  9993
2 53106  70.1621 326.0976 0008371 189.0727 170.9782  6.42557054 20576
RS29S (SXC3-2110 CYCLO*)
1 53373U 22096D   23154.08979616  .00031410  00000+0  83600-3 0  9999
2 53373  97.4158  60.2317 0002586 114.2888 245.8627 15.38148275 45523
RS32S (SXC3-212 MONITO*)
1 53374U 22096E   23154.05133813  .00026880  00000+0  73487-3 0  9995
2 53374  97.4137  60.0932 0002943 122.5016 237.6514 15.37347890 45510
RS34S (SXC3-218 KUZBAS*)
1 53375U 22096F   23154.12019428  .00022510  00000+0  65317-3 0  9998
2 53375  97.4164  59.8895 0002866 119.9731 240.1797 15.35522343 45500
RS23S (SXC3-21 UTMN)    
1 53376U 22096G   23154.08231225  .00023981  00000+0  68440-3 0  9998
2 53376  97.4159  59.9339 0002621 116.2570 243.8944 15.36031447 45504
RS28S (SXC3-214 MIET-A*)
1 53377U 22096H   23154.12633870  .00020594  00000+0  60487-3 0  9996
2 53377  97.4168  59.8879 0002746 120.8273 239.3241 15.35159146 45508
RS26S (KAI-1)           
1 53378U 22096J   23154.08712860  .00017803  00000+0  54654-3 0  9997
2 53378  97.4183  59.6484 0002768 117.6944 242.4580 15.33790024 45481
RS19S (SXC3-219 ISOI)   
1 53381U 22096M   23154.08143362  .00022452  00000+0  64274-3 0  9991
2 53381  97.4159  60.0831 0005616 104.9584 255.2281 15.35937191 45518
RS21S (CUBESX-HSE-2)    
1 53383U 22096P   23154.12325654  .00022394  00000+0  63261-3 0  9994
2 53383  97.4162  60.1905 0006164 105.8441 254.3483 15.36350018 45521
RS30S (SXC3-217 SIREN)  
1 53384U 22096Q   23154.07629459  .00018745  00000+0  55485-3 0  9993
2 53384  97.4173  59.9597 0006114 102.7477 257.4450 15.34919752 45507
RS20S (GEOSCAN-EDELVEIS)
1 53385U 22096R   23154.07039489  .00030846  00000+0  78113-3 0  9991
2 53385  97.4153  60.6980 0006475 104.2302 255.9663 15.39664843 45585
RS33S (SXC3-215 VIZARD) 
1 53386U 22096S   23154.08238200  .00039845  00000+0  89971-3 0  9997
2 53386  97.4148  61.2886 0007198 103.3614 256.8437 15.43072085 45610
CAS-5A (FO-118)         
1 54684U 22167C   23154.12964544  .00011292  00000+0  62858-3 0  9991
2 54684  97.5605 291.8083 0013682  28.8208 331.3776 15.13725787 26554
